{
  "type": "FeatureCollection",
  "features": [
    {
      "type": "Feature",
      "properties": {
        "norad_id": 51444,
        "name": "CSG-2",
        "group": "resource",
        "lat": -51.51337029455279,
        "lon": -30.422352392510703,
        "alt_km": 630.3371784897317,
        "timestamp": "2025-12-04T03:47:54.211614+00:00",
        "meta_object_name": "CSG-2",
        "meta_object_id": "2022-008A",
        "meta_epoch": "2025-12-03T20:16:23.834784",
        "meta_mean_motion": 14.82148875,
        "meta_eccentricity": 0.0001478,
        "meta_inclination": 97.8807,
        "meta_ra_of_asc_node": 159.302,
        "meta_arg_of_pericenter": 89.7864,
        "meta_mean_anomaly": 270.3518,
        "meta_ephemeris_type": 0,
        "meta_classification_type": "U",
        "meta_norad_cat_id": 51444,
        "meta_element_set_no": 999,
        "meta_rev_at_epoch": 20765,
        "meta_bstar": 0.00011707,
        "meta_mean_motion_dot": 8.8e-06,
        "meta_mean_motion_ddot": 0,
        "tle_line1": "1 51444U 22008A   25337.84472031  .00000880  00000+0  11707-3 0  9993",
        "tle_line2": "2 51444  97.8807 159.3020 0001478  89.7864 270.3518 14.82148875207655"
      },
      "geometry": {
        "type": "Point",
        "coordinates": [
          -30.422352392510703,
          -51.51337029455279
        ]
      }
    },
    {
      "type": "Feature",
      "properties": {
        "norad_id": 52912,
        "name": "GAOFEN-12 03",
        "group": "resource",
        "lat": -47.27312124427629,
        "lon": 37.11625002202101,
        "alt_km": 638.9427436948645,
        "timestamp": "2025-12-04T03:47:54.211624+00:00",
        "meta_object_name": "GAOFEN-12 03",
        "meta_object_id": "2022-069A",
        "meta_epoch": "2025-12-03T20:16:47.484192",
        "meta_mean_motion": 14.79573821,
        "meta_eccentricity": 0.0002307,
        "meta_inclination": 97.8487,
        "meta_ra_of_asc_node": 225.3993,
        "meta_arg_of_pericenter": 75.1503,
        "meta_mean_anomaly": 284.9964,
        "meta_ephemeris_type": 0,
        "meta_classification_type": "U",
        "meta_norad_cat_id": 52912,
        "meta_element_set_no": 999,
        "meta_rev_at_epoch": 18572,
        "meta_bstar": 0.00024638,
        "meta_mean_motion_dot": 1.794e-05,
        "meta_mean_motion_ddot": 0,
        "tle_line1": "1 52912U 22069A   25337.84499403  .00001794  00000+0  24638-3 0  9995",
        "tle_line2": "2 52912  97.8487 225.3993 0002307  75.1503 284.9964 14.79573821185722"
      },
      "geometry": {
        "type": "Point",
        "coordinates": [
          37.11625002202101,
          -47.27312124427629
        ]
      }
    },
    {
      "type": "Feature",
      "properties": {
        "norad_id": 54754,
        "name": "SWOT",
        "group": "resource",
        "lat": 48.53066116993146,
        "lon": 104.17234866938206,
        "alt_km": 888.4104763625728,
        "timestamp": "2025-12-04T03:47:54.211634+00:00",
        "meta_object_name": "SWOT",
        "meta_object_id": "2022-173A",
        "meta_epoch": "2025-12-03T18:36:21.601728",
        "meta_mean_motion": 14.00172519,
        "meta_eccentricity": 3.2e-05,
        "meta_inclination": 77.6099,
        "meta_ra_of_asc_node": 299.0916,
        "meta_arg_of_pericenter": 137.5398,
        "meta_mean_anomaly": 222.5778,
        "meta_ephemeris_type": 0,
        "meta_classification_type": "U",
        "meta_norad_cat_id": 54754,
        "meta_element_set_no": 999,
        "meta_rev_at_epoch": 15180,
        "meta_bstar": 7.7348e-05,
        "meta_mean_motion_dot": 1.12e-06,
        "meta_mean_motion_ddot": 0,
        "tle_line1": "1 54754U 22173A   25337.77525002  .00000112  00000+0  77348-4 0  9994",
        "tle_line2": "2 54754  77.6099 299.0916 0000320 137.5398 222.5778 14.00172519151800"
      },
      "geometry": {
        "type": "Point",
        "coordinates": [
          104.17234866938206,
          48.53066116993146
        ]
      }
    },
    {
      "type": "Feature",
      "properties": {
        "norad_id": 57654,
        "name": "GAOFEN-12 04",
        "group": "resource",
        "lat": 34.13950648364331,
        "lon": -111.3647244190519,
        "alt_km": 627.4287283250324,
        "timestamp": "2025-12-04T03:47:54.211644+00:00",
        "meta_object_name": "GAOFEN-12 04",
        "meta_object_id": "2023-123A",
        "meta_epoch": "2025-12-03T21:09:03.597696",
        "meta_mean_motion": 14.79656197,
        "meta_eccentricity": 0.0001452,
        "meta_inclination": 97.9117,
        "meta_ra_of_asc_node": 253.7732,
        "meta_arg_of_pericenter": 72.7097,
        "meta_mean_anomaly": 287.4273,
        "meta_ephemeris_type": 0,
        "meta_classification_type": "U",
        "meta_norad_cat_id": 57654,
        "meta_element_set_no": 999,
        "meta_rev_at_epoch": 12374,
        "meta_bstar": 0.00033215,
        "meta_mean_motion_dot": 2.441e-05,
        "meta_mean_motion_ddot": 0,
        "tle_line1": "1 57654U 23123A   25337.88129164  .00002441  00000+0  33215-3 0  9994",
        "tle_line2": "2 57654  97.9117 253.7732 0001452  72.7097 287.4273 14.79656197123741"
      },
      "geometry": {
        "type": "Point",
        "coordinates": [
          -111.3647244190519,
          34.13950648364331
        ]
      }
    },
    {
      "type": "Feature",
      "properties": {
        "norad_id": 59065,
        "name": "PARS 1",
        "group": "resource",
        "lat": -14.894111088063257,
        "lon": -49.09035963302203,
        "alt_km": 452.19543094663914,
        "timestamp": "2025-12-04T03:47:54.211654+00:00",
        "meta_object_name": "PARS 1",
        "meta_object_id": "2024-039Q",
        "meta_epoch": "2025-12-03T21:37:42.225888",
        "meta_mean_motion": 15.40668367,
        "meta_eccentricity": 0.0012671,
        "meta_inclination": 97.4619,
        "meta_ra_of_asc_node": 308.6495,
        "meta_arg_of_pericenter": 98.2306,
        "meta_mean_anomaly": 262.0377,
        "meta_ephemeris_type": 0,
        "meta_classification_type": "U",
        "meta_norad_cat_id": 59065,
        "meta_element_set_no": 999,
        "meta_rev_at_epoch": 9852,
        "meta_bstar": 0.00041286,
        "meta_mean_motion_dot": 0.00016814,
        "meta_mean_motion_ddot": 0,
        "tle_line1": "1 59065U 24039Q   25337.90118317  .00016814  00000+0  41286-3 0  9996",
        "tle_line2": "2 59065  97.4619 308.6495 0012671  98.2306 262.0377 15.40668367 98520"
      },
      "geometry": {
        "type": "Point",
        "coordinates": [
          -49.09035963302203,
          -14.894111088063257
        ]
      }
    },
    {
      "type": "Feature",
      "properties": {
        "norad_id": 59371,
        "name": "RESURS-P 4",
        "group": "resource",
        "lat": 38.340684116259816,
        "lon": -81.11612611707677,
        "alt_km": 465.7406701431246,
        "timestamp": "2025-12-04T03:47:54.211665+00:00",
        "meta_object_name": "RESURS-P 4",
        "meta_object_id": "2024-061A",
        "meta_epoch": "2025-12-03T21:21:34.434432",
        "meta_mean_motion": 15.3197426,
        "meta_eccentricity": 0.0002129,
        "meta_inclination": 97.2531,
        "meta_ra_of_asc_node": 284.4024,
        "meta_arg_of_pericenter": 55.1126,
        "meta_mean_anomaly": 305.0315,
        "meta_ephemeris_type": 0,
        "meta_classification_type": "U",
        "meta_norad_cat_id": 59371,
        "meta_element_set_no": 999,
        "meta_rev_at_epoch": 9385,
        "meta_bstar": 0.00020535,
        "meta_mean_motion_dot": 6.263e-05,
        "meta_mean_motion_ddot": 0,
        "tle_line1": "1 59371U 24061A   25337.88998188  .00006263  00000+0  20535-3 0  9991",
        "tle_line2": "2 59371  97.2531 284.4024 0002129  55.1126 305.0315 15.31974260 93852"
      },
      "geometry": {
        "type": "Point",
        "coordinates": [
          -81.11612611707677,
          38.340684116259816
        ]
      }
    },
    {
      "type": "Feature",
      "properties": {
        "norad_id": 59625,
        "name": "LEGION 1",
        "group": "resource",
        "lat": 25.11255175129712,
        "lon": 49.31950077896644,
        "alt_km": 513.5566420871764,
        "timestamp": "2025-12-04T03:47:54.211675+00:00",
        "meta_object_name": "LEGION 1",
        "meta_object_id": "2024-081A",
        "meta_epoch": "2025-12-03T19:46:05.648736",
        "meta_mean_motion": 15.16336327,
        "meta_eccentricity": 0.0004685,
        "meta_inclination": 97.5231,
        "meta_ra_of_asc_node": 52.539,
        "meta_arg_of_pericenter": 352.7588,
        "meta_mean_anomaly": 7.3577,
        "meta_ephemeris_type": 0,
        "meta_classification_type": "U",
        "meta_norad_cat_id": 59625,
        "meta_element_set_no": 999,
        "meta_rev_at_epoch": 8792,
        "meta_bstar": 0.00043492,
        "meta_mean_motion_dot": 8.371e-05,
        "meta_mean_motion_ddot": 0,
        "tle_line1": "1 59625U 24081A   25337.82367649  .00008371  00000+0  43492-3 0  9990",
        "tle_line2": "2 59625  97.5231  52.5390 0004685 352.7588   7.3577 15.16336327 87923"
      },
      "geometry": {
        "type": "Point",
        "coordinates": [
          49.31950077896644,
          25.11255175129712
        ]
      }
    }
  ]
}